OBJECT_NAME,OBJECT_ID,EPOCH,MEAN_MOTION,ECCENTRICITY,INCLINATION,RA_OF_ASC_NODE,ARG_OF_PERICENTER,MEAN_ANOMALY,EPHEMERIS_TYPE,CLASSIFICATION_TYPE,NORAD_CAT_ID,ELEMENT_SET_NO,REV_AT_EPOCH,BSTAR,MEAN_MOTION_DOT,MEAN_MOTION_DDOT
QIANFAN-208,2026-153H,2026-07-16T03:47:47.853600,14.25462065,.0008279,88.9922,358.9372,180.6924,179.4259,0,U,69807,999,168,.53354E-4,.141E-5,0
QIANFAN-209,2026-153J,2026-07-16T03:50:37.305600,14.23086290,.0007408,88.9922,358.9375,177.0408,183.0829,0,U,69808,999,168,.88824E-4,.215E-5,0
QIANFAN-210,2026-153K,2026-07-16T03:45:59.505408,14.24070160,.0007759,88.9921,358.9381,179.6529,180.4670,0,U,69809,999,168,.14694E-4,.48E-6,0
QIANFAN-211,2026-153L,2026-07-16T03:45:27.762048,14.24384635,.0007624,88.9920,358.9366,179.0933,181.0274,0,U,69810,999,168,.14494E-4,.48E-6,0
QIANFAN-212,2026-153M,2026-07-16T03:43:53.441760,14.26669350,.000815,88.9922,358.9368,181.5297,178.5873,0,U,69811,999,168,.15711E-4,.53E-6,0
QIANFAN-213,2026-153N,2026-07-16T03:43:50.672640,14.26673798,.0007841,88.9922,358.9369,181.4153,178.7020,0,U,69812,999,168,.5074E-4,.137E-5,0
QIANFAN-214,2026-153P,2026-07-16T03:43:47.036064,14.26715035,.000788,88.9922,358.9369,181.0071,179.1108,0,U,69813,999,168,.15822E-4,.53E-6,0
QIANFAN-215,2026-153Q,2026-07-16T02:02:45.009888,14.26718407,.0007948,88.9921,358.9447,182.5503,177.5651,0,U,69814,999,167,.4511E-4,.124E-5,0
QIANFAN-216,2026-153R,2026-07-16T03:43:44.190048,14.26719499,.0007926,88.9922,358.9367,182.0706,178.0456,0,U,69815,999,168,.52536E-4,.142E-5,0
QIANFAN-217,2026-153S,2026-07-16T03:43:08.978592,14.26767974,.0007632,88.9921,358.9365,178.6229,181.4987,0,U,69816,999,168,.12056E-4,.44E-6,0
QIANFAN-218,2026-153T,2026-07-16T03:42:39.472992,14.26810694,.000741,88.9924,358.9369,175.8016,184.3242,0,U,69817,999,168,.42631E-4,.118E-5,0
CZ-6A R/B,2026-153U,2026-07-16T03:31:13.456992,14.53448811,.0087053,89.0163,358.8649,83.7984,277.3133,0,U,69818,999,171,.29067E-4,.146E-5,0
STARLINK-37520,2026-154A,2026-07-16T04:00:01.998720,15.80799818,.0001668,53.1585,288.0834,80.7367,53.1556,0,U,69819,999,282,.62042E-3,.123096E-2,0
STARLINK-37553,2026-154B,2026-07-16T04:00:01.998720,15.80853397,.0000639,53.1584,288.0744,83.2965,54.8836,0,U,69820,999,282,.26971E-3,.52811E-3,0
STARLINK-37561,2026-154C,2026-07-16T04:00:01.998720,15.80863516,.0001416,53.1587,288.0649,91.2230,51.2406,0,U,69821,999,282,.12521E-3,.24071E-3,0
STARLINK-37521,2026-154D,2026-07-16T04:00:01.998720,15.80863962,.0001082,53.1587,288.0563,82.6211,64.1191,0,U,69822,999,282,.97275E-4,.18533E-3,0
STARLINK-37628,2026-154E,2026-07-16T04:00:01.998720,15.80869722,.0001232,53.1589,288.0472,69.5851,81.4220,0,U,69823,999,282,.70162E-4,.13168E-3,0
STARLINK-37695,2026-154F,2026-07-16T04:00:01.998720,15.84222273,.0000947,53.1588,287.9754,78.4729,107.4478,0,U,69824,999,282,-.97777E-2,-.1965296E-1,0
STARLINK-37690,2026-154G,2026-07-16T04:00:01.998720,15.80832943,.0001223,53.1589,288.0299,85.0966,74.4611,0,U,69825,999,282,.27128E-3,.53073E-3,0
STARLINK-37710,2026-154H,2026-07-16T04:00:01.998720,15.80883844,.000076,53.1591,288.0210,68.5882,95.2311,0,U,69826,999,282,-.12232E-3,-.24782E-3,0
STARLINK-38031,2026-154J,2026-07-16T04:00:01.998720,15.80841354,.0000736,53.1590,288.0120,45.8012,122.2938,0,U,69827,999,282,-.2837E-3,-.56245E-3,0
STARLINK-38001,2026-154K,2026-07-16T04:00:01.998720,15.80980155,.0001118,53.1589,288.0034,91.8026,80.5074,0,U,69828,999,282,-.11943E-2,-.231361E-2,0
STARLINK-37622,2026-154L,2026-07-16T04:00:01.998720,15.81097317,.0001045,53.1592,287.9945,57.8414,118.6823,0,U,69829,999,282,-.18499E-2,-.354886E-2,0
STARLINK-37621,2026-154M,2026-07-16T04:00:01.998720,15.81295658,.0000796,53.1589,287.9858,82.4518,98.2455,0,U,69830,999,282,-.34331E-2,-.642615E-2,0
STARLINK-37918,2026-154N,2026-07-16T04:00:01.998720,15.81483554,.0001084,53.1590,287.9773,74.6958,110.1498,0,U,69831,999,282,-.45546E-2,-.840476E-2,0
STARLINK-37887,2026-154P,2026-07-16T04:00:01.998720,15.81780537,.000104,53.1590,287.9688,65.6618,123.2912,0,U,69832,999,282,-.71088E-2,-.1289675E-1,0
STARLINK-37624,2026-154Q,2026-07-16T04:00:01.998720,15.81904181,.0001312,53.1590,287.9597,95.1470,97.9811,0,U,69833,999,282,-.74228E-2,-.1346507E-1,0
STARLINK-37769,2026-154R,2026-07-16T04:00:01.998720,15.81987589,.0001267,53.1589,287.9513,81.1183,116.1739,0,U,69834,999,282,-.74574E-2,-.135661E-1,0
STARLINK-37247,2026-154S,2026-07-16T04:00:01.998720,15.82194686,.000111,53.1591,287.9429,62.6883,138.7220,0,U,69835,999,292,-.88412E-2,-.1620372E-1,0
STARLINK-37569,2026-154T,2026-07-16T04:00:01.998720,15.82390709,.0001022,53.1589,287.9350,92.1699,113.2905,0,U,69836,999,282,-.90633E-2,-.1668924E-1,0
