QIANFAN-208             
1 69807U 26153H   26197.15819275  .00000141  00000+0  53354-4 0  9999
2 69807  88.9922 358.9372 0008279 180.6924 179.4259 14.25462065  1680
QIANFAN-209             
1 69808U 26153J   26197.16015400  .00000215  00000+0  88824-4 0  9991
2 69808  88.9922 358.9375 0007408 177.0408 183.0829 14.23086290  1688
QIANFAN-210             
1 69809U 26153K   26197.15693872  .00000048  00000+0  14694-4 0  9994
2 69809  88.9921 358.9381 0007759 179.6529 180.4670 14.24070160  1681
QIANFAN-211             
1 69810U 26153L   26197.15657132  .00000048  00000+0  14494-4 0  9993
2 69810  88.9920 358.9366 0007624 179.0933 181.0274 14.24384635  1681
QIANFAN-212             
1 69811U 26153M   26197.15547965  .00000053  00000+0  15711-4 0  9995
2 69811  88.9922 358.9368 0008150 181.5297 178.5873 14.26669350  1680
QIANFAN-213             
1 69812U 26153N   26197.15544760  .00000137  00000+0  50740-4 0  9990
2 69812  88.9922 358.9369 0007841 181.4153 178.7020 14.26673798  1685
QIANFAN-214             
1 69813U 26153P   26197.15540551  .00000053  00000+0  15822-4 0  9994
2 69813  88.9922 358.9369 0007880 181.0071 179.1108 14.26715035  1687
QIANFAN-215             
1 69814U 26153Q   26197.08524317  .00000124  00000+0  45110-4 0  9991
2 69814  88.9921 358.9447 0007948 182.5503 177.5651 14.26718407  1675
QIANFAN-216             
1 69815U 26153R   26197.15537257  .00000142  00000+0  52536-4 0  9997
2 69815  88.9922 358.9367 0007926 182.0706 178.0456 14.26719499  1686
QIANFAN-217             
1 69816U 26153S   26197.15496503  .00000044  00000+0  12056-4 0  9990
2 69816  88.9921 358.9365 0007632 178.6229 181.4987 14.26767974  1687
QIANFAN-218             
1 69817U 26153T   26197.15462353  .00000118  00000+0  42631-4 0  9991
2 69817  88.9924 358.9369 0007410 175.8016 184.3242 14.26810694  1686
CZ-6A R/B               
1 69818U 26153U   26197.14668353  .00000146  00000+0  29067-4 0  9998
2 69818  89.0163 358.8649 0087053  83.7984 277.3133 14.53448811  1710
STARLINK-37520          
1 69819U 26154A   26197.16668980  .00123096  00000+0  62042-3 0  9997
2 69819  53.1585 288.0834 0001668  80.7367  53.1556 15.80799818  2820
STARLINK-37553          
1 69820U 26154B   26197.16668980  .00052811  00000+0  26971-3 0  9996
2 69820  53.1584 288.0744 0000639  83.2965  54.8836 15.80853397  2822
STARLINK-37561          
1 69821U 26154C   26197.16668980  .00024071  00000+0  12521-3 0  9990
2 69821  53.1587 288.0649 0001416  91.2230  51.2406 15.80863516  2826
STARLINK-37521          
1 69822U 26154D   26197.16668980  .00018533  00000+0  97275-4 0  9997
2 69822  53.1587 288.0563 0001082  82.6211  64.1191 15.80863962  2823
STARLINK-37628          
1 69823U 26154E   26197.16668980  .00013168  00000+0  70162-4 0  9993
2 69823  53.1589 288.0472 0001232  69.5851  81.4220 15.80869722  2821
STARLINK-37695          
1 69824U 26154F   26197.16668980 -.01965296  00000+0 -97777-2 0  9994
2 69824  53.1588 287.9754 0000947  78.4729 107.4478 15.84222273  2829
STARLINK-37690          
1 69825U 26154G   26197.16668980  .00053073  00000+0  27128-3 0  9997
2 69825  53.1589 288.0299 0001223  85.0966  74.4611 15.80832943  2821
STARLINK-37710          
1 69826U 26154H   26197.16668980 -.00024782  00000+0 -12232-3 0  9995
2 69826  53.1591 288.0210 0000760  68.5882  95.2311 15.80883844  2820
STARLINK-38031          
1 69827U 26154J   26197.16668980 -.00056245  00000+0 -28370-3 0  9995
2 69827  53.1590 288.0120 0000736  45.8012 122.2938 15.80841354  2822
STARLINK-38001          
1 69828U 26154K   26197.16668980 -.00231361  00000+0 -11943-2 0  9997
2 69828  53.1589 288.0034 0001118  91.8026  80.5074 15.80980155  2826
STARLINK-37622          
1 69829U 26154L   26197.16668980 -.00354886  00000+0 -18499-2 0  9999
2 69829  53.1592 287.9945 0001045  57.8414 118.6823 15.81097317  2827
STARLINK-37621          
1 69830U 26154M   26197.16668980 -.00642615  00000+0 -34331-2 0  9994
2 69830  53.1589 287.9858 0000796  82.4518  98.2455 15.81295658  2821
STARLINK-37918          
1 69831U 26154N   26197.16668980 -.00840476  00000+0 -45546-2 0  9990
2 69831  53.1590 287.9773 0001084  74.6958 110.1498 15.81483554  2827
STARLINK-37887          
1 69832U 26154P   26197.16668980 -.01289675  00000+0 -71088-2 0  9990
2 69832  53.1590 287.9688 0001040  65.6618 123.2912 15.81780537  2825
STARLINK-37624          
1 69833U 26154Q   26197.16668980 -.01346507  00000+0 -74228-2 0  9998
2 69833  53.1590 287.9597 0001312  95.1470  97.9811 15.81904181  2829
STARLINK-37769          
1 69834U 26154R   26197.16668980 -.01356610  00000+0 -74574-2 0  9999
2 69834  53.1589 287.9513 0001267  81.1183 116.1739 15.81987589  2827
STARLINK-37247          
1 69835U 26154S   26197.16668980 -.01620372  00000+0 -88412-2 0  9995
2 69835  53.1591 287.9429 0001110  62.6883 138.7220 15.82194686  2920
STARLINK-37569          
1 69836U 26154T   26197.16668980 -.01668924  00000+0 -90633-2 0  9999
2 69836  53.1589 287.9350 0001022  92.1699 113.2905 15.82390709  2827
